[{"OBJECT_NAME":"IRIDIUM 137","OBJECT_ID":"2017-083G","EPOCH":"2026-03-09T20:35:55.284000","MEAN_MOTION":14.34217602,"ECCENTRICITY":0.00024008,"INCLINATION":86.4028,"RA_OF_ASC_NODE":3.6635,"ARG_OF_PERICENTER":94.3456,"MEAN_ANOMALY":265.8014,"EPHEMERIS_TYPE":0,"CLASSIFICATION_TYPE":"U","NORAD_CAT_ID":43076,"ELEMENT_SET_NO":999,"REV_AT_EPOCH":42993,"BSTAR":5.494784e-6,"MEAN_MOTION_DOT":3.5e-7,"MEAN_MOTION_DDOT":0},{"OBJECT_NAME":"UNKNOWN","OBJECT_ID":"","EPOCH":"2026-03-09T04:07:28.221024","MEAN_MOTION":14.39475185,"ECCENTRICITY":0.0205861,"INCLINATION":97.739,"RA_OF_ASC_NODE":141.0566,"ARG_OF_PERICENTER":24.2005,"MEAN_ANOMALY":336.8689,"EPHEMERIS_TYPE":0,"CLASSIFICATION_TYPE":"U","NORAD_CAT_ID":82073,"ELEMENT_SET_NO":999,"REV_AT_EPOCH":58755,"BSTAR":0.00062271,"MEAN_MOTION_DOT":2.445e-5,"MEAN_MOTION_DDOT":0}]
